[{"OBJECT_NAME":"STARLINK-36810","OBJECT_ID":"2026-035V","EPOCH":"2026-03-18T14:00:01.000224","MEAN_MOTION":15.76056801,"ECCENTRICITY":0.00015433,"INCLINATION":97.2867,"RA_OF_ASC_NODE":10.4578,"ARG_OF_PERICENTER":85.808,"MEAN_ANOMALY":14.7423,"EPHEMERIS_TYPE":0,"CLASSIFICATION_TYPE":"U","NORAD_CAT_ID":67898,"ELEMENT_SET_NO":999,"REV_AT_EPOCH":518,"BSTAR":-0.0084811827,"MEAN_MOTION_DOT":-0.01170145,"MEAN_MOTION_DDOT":0},{"OBJECT_NAME":"STARLINK-36878","OBJECT_ID":"2026-035W","EPOCH":"2026-03-18T13:30:15.275520","MEAN_MOTION":15.80939435,"ECCENTRICITY":0.00014186,"INCLINATION":97.2903,"RA_OF_ASC_NODE":10.4399,"ARG_OF_PERICENTER":105.2163,"MEAN_ANOMALY":254.9263,"EPHEMERIS_TYPE":0,"CLASSIFICATION_TYPE":"U","NORAD_CAT_ID":67899,"ELEMENT_SET_NO":999,"REV_AT_EPOCH":524,"BSTAR":0.0016784176,"MEAN_MOTION_DOT":0.00335938,"MEAN_MOTION_DDOT":0},{"OBJECT_NAME":"STARLINK-36361","OBJECT_ID":"2026-035X","EPOCH":"2026-03-18T13:29:10.259520","MEAN_MOTION":15.80925958,"ECCENTRICITY":0.00011346,"INCLINATION":97.29,"RA_OF_ASC_NODE":10.4413,"ARG_OF_PERICENTER":111.0368,"MEAN_ANOMALY":249.1022,"EPHEMERIS_TYPE":0,"CLASSIFICATION_TYPE":"U","NORAD_CAT_ID":67900,"ELEMENT_SET_NO":999,"REV_AT_EPOCH":524,"BSTAR":0.00146127,"MEAN_MOTION_DOT":0.0029075,"MEAN_MOTION_DDOT":0},{"OBJECT_NAME":"STARLINK-36336","OBJECT_ID":"2026-035Y","EPOCH":"2026-03-18T14:00:01.000224","MEAN_MOTION":15.78060523,"ECCENTRICITY":0.00019277,"INCLINATION":97.2875,"RA_OF_ASC_NODE":10.4725,"ARG_OF_PERICENTER":77.5556,"MEAN_ANOMALY":53.9749,"EPHEMERIS_TYPE":0,"CLASSIFICATION_TYPE":"U","NORAD_CAT_ID":67901,"ELEMENT_SET_NO":999,"REV_AT_EPOCH":523,"BSTAR":-0.013056018,"MEAN_MOTION_DOT":-0.01924325,"MEAN_MOTION_DDOT":0},{"OBJECT_NAME":"STARLINK-36876","OBJECT_ID":"2026-035Z","EPOCH":"2026-03-18T13:28:05.254752","MEAN_MOTION":15.8088861,"ECCENTRICITY":0.00011549,"INCLINATION":97.2893,"RA_OF_ASC_NODE":10.4436,"ARG_OF_PERICENTER":127.9423,"MEAN_ANOMALY":232.195,"EPHEMERIS_TYPE":0,"CLASSIFICATION_TYPE":"U","NORAD_CAT_ID":67902,"ELEMENT_SET_NO":999,"REV_AT_EPOCH":524,"BSTAR":0.00099110574,"MEAN_MOTION_DOT":0.00194641,"MEAN_MOTION_DDOT":0},{"OBJECT_NAME":"STARLINK-36257","OBJECT_ID":"2026-035AA","EPOCH":"2026-03-18T07:44:13.088544","MEAN_MOTION":15.75210934,"ECCENTRICITY":0.00028391,"INCLINATION":97.2863,"RA_OF_ASC_NODE":10.1586,"ARG_OF_PERICENTER":104.0581,"MEAN_ANOMALY":256.1,"EPHEMERIS_TYPE":0,"CLASSIFICATION_TYPE":"U","NORAD_CAT_ID":67903,"ELEMENT_SET_NO":999,"REV_AT_EPOCH":520,"BSTAR":0.0013437604,"MEAN_MOTION_DOT":0.002054,"MEAN_MOTION_DDOT":0},{"OBJECT_NAME":"STARLINK-36814","OBJECT_ID":"2026-036A","EPOCH":"2026-03-18T14:00:01.000224","MEAN_MOTION":15.50541393,"ECCENTRICITY":0.0001355,"INCLINATION":43.0002,"RA_OF_ASC_NODE":197.1822,"ARG_OF_PERICENTER":275.301,"MEAN_ANOMALY":235.4879,"EPHEMERIS_TYPE":0,"CLASSIFICATION_TYPE":"U","NORAD_CAT_ID":67904,"ELEMENT_SET_NO":999,"REV_AT_EPOCH":507,"BSTAR":0.00094760338,"MEAN_MOTION_DOT":0.0005557,"MEAN_MOTION_DDOT":0},{"OBJECT_NAME":"STARLINK-36729","OBJECT_ID":"2026-036B","EPOCH":"2026-03-18T14:00:01.000224","MEAN_MOTION":15.50544278,"ECCENTRICITY":0.00012405,"INCLINATION":43.0004,"RA_OF_ASC_NODE":196.5341,"ARG_OF_PERICENTER":281.9527,"MEAN_ANOMALY":130.9542,"EPHEMERIS_TYPE":0,"CLASSIFICATION_TYPE":"U","NORAD_CAT_ID":67905,"ELEMENT_SET_NO":999,"REV_AT_EPOCH":507,"BSTAR":0.00069217384,"MEAN_MOTION_DOT":0.00040424,"MEAN_MOTION_DDOT":0},{"OBJECT_NAME":"STARLINK-36763","OBJECT_ID":"2026-036C","EPOCH":"2026-03-18T14:00:01.000224","MEAN_MOTION":15.50549938,"ECCENTRICITY":0.00020654,"INCLINATION":43.0002,"RA_OF_ASC_NODE":196.4603,"ARG_OF_PERICENTER":285.3611,"MEAN_ANOMALY":157.3306,"EPHEMERIS_TYPE":0,"CLASSIFICATION_TYPE":"U","NORAD_CAT_ID":67906,"ELEMENT_SET_NO":999,"REV_AT_EPOCH":507,"BSTAR":0.00066627496,"MEAN_MOTION_DOT":0.000389,"MEAN_MOTION_DDOT":0},{"OBJECT_NAME":"STARLINK-36742","OBJECT_ID":"2026-036D","EPOCH":"2026-03-18T14:00:01.000224","MEAN_MOTION":15.50548728,"ECCENTRICITY":0.00010941,"INCLINATION":43.0004,"RA_OF_ASC_NODE":196.5115,"ARG_OF_PERICENTER":294.3641,"MEAN_ANOMALY":127.7449,"EPHEMERIS_TYPE":0,"CLASSIFICATION_TYPE":"U","NORAD_CAT_ID":67907,"ELEMENT_SET_NO":999,"REV_AT_EPOCH":507,"BSTAR":0.00078915114,"MEAN_MOTION_DOT":0.00046177,"MEAN_MOTION_DDOT":0},{"OBJECT_NAME":"STARLINK-36827","OBJECT_ID":"2026-036E","EPOCH":"2026-03-18T14:00:01.000224","MEAN_MOTION":15.52461351,"ECCENTRICITY":0.00014557,"INCLINATION":43.0001,"RA_OF_ASC_NODE":196.2015,"ARG_OF_PERICENTER":273.6462,"MEAN_ANOMALY":273.7627,"EPHEMERIS_TYPE":0,"CLASSIFICATION_TYPE":"U","NORAD_CAT_ID":67908,"ELEMENT_SET_NO":999,"REV_AT_EPOCH":507,"BSTAR":-0.035498091,"MEAN_MOTION_DOT":-0.01992431,"MEAN_MOTION_DDOT":0},{"OBJECT_NAME":"STARLINK-36822","OBJECT_ID":"2026-036F","EPOCH":"2026-03-18T14:00:01.000224","MEAN_MOTION":15.5054427,"ECCENTRICITY":0.00017703,"INCLINATION":43.0001,"RA_OF_ASC_NODE":196.4533,"ARG_OF_PERICENTER":273.9833,"MEAN_ANOMALY":171.54,"EPHEMERIS_TYPE":0,"CLASSIFICATION_TYPE":"U","NORAD_CAT_ID":67909,"ELEMENT_SET_NO":999,"REV_AT_EPOCH":507,"BSTAR":0.00067520863,"MEAN_MOTION_DOT":0.00039421,"MEAN_MOTION_DDOT":0},{"OBJECT_NAME":"STARLINK-36847","OBJECT_ID":"2026-036G","EPOCH":"2026-03-18T14:00:01.000224","MEAN_MOTION":15.50564867,"ECCENTRICITY":0.0001732,"INCLINATION":43.0003,"RA_OF_ASC_NODE":196.5,"ARG_OF_PERICENTER":313.8643,"MEAN_ANOMALY":112.5048,"EPHEMERIS_TYPE":0,"CLASSIFICATION_TYPE":"U","NORAD_CAT_ID":67910,"ELEMENT_SET_NO":999,"REV_AT_EPOCH":507,"BSTAR":0.00057401297,"MEAN_MOTION_DOT":0.0003346,"MEAN_MOTION_DDOT":0},{"OBJECT_NAME":"STARLINK-36736","OBJECT_ID":"2026-036H","EPOCH":"2026-03-18T14:00:01.000224","MEAN_MOTION":15.55859551,"ECCENTRICITY":0.00012991,"INCLINATION":42.9999,"RA_OF_ASC_NODE":195.965,"ARG_OF_PERICENTER":275.5359,"MEAN_ANOMALY":7.5913,"EPHEMERIS_TYPE":0,"CLASSIFICATION_TYPE":"U","NORAD_CAT_ID":67911,"ELEMENT_SET_NO":999,"REV_AT_EPOCH":507,"BSTAR":-0.030068061,"MEAN_MOTION_DOT":-0.01887523,"MEAN_MOTION_DDOT":0},{"OBJECT_NAME":"STARLINK-36676","OBJECT_ID":"2026-036J","EPOCH":"2026-03-18T14:00:01.000224","MEAN_MOTION":15.53738429,"ECCENTRICITY":0.00011727,"INCLINATION":43.0003,"RA_OF_ASC_NODE":196.0781,"ARG_OF_PERICENTER":284.9511,"MEAN_ANOMALY":312.9728,"EPHEMERIS_TYPE":0,"CLASSIFICATION_TYPE":"U","NORAD_CAT_ID":67912,"ELEMENT_SET_NO":999,"REV_AT_EPOCH":507,"BSTAR":-0.032098019,"MEAN_MOTION_DOT":-0.01865152,"MEAN_MOTION_DDOT":0},{"OBJECT_NAME":"STARLINK-36690","OBJECT_ID":"2026-036K","EPOCH":"2026-03-18T14:00:01.000224","MEAN_MOTION":15.53811443,"ECCENTRICITY":8.133e-5,"INCLINATION":43,"RA_OF_ASC_NODE":196.0626,"ARG_OF_PERICENTER":283.8272,"MEAN_ANOMALY":319.3719,"EPHEMERIS_TYPE":0,"CLASSIFICATION_TYPE":"U","NORAD_CAT_ID":67913,"ELEMENT_SET_NO":999,"REV_AT_EPOCH":507,"BSTAR":-0.032967573,"MEAN_MOTION_DOT":-0.01948793,"MEAN_MOTION_DDOT":0}]
